[{"OBJECT_NAME":"SDA_1664","OBJECT_ID":"2025-230A","EPOCH":"2026-03-09T22:53:15.948384","MEAN_MOTION":13.84453987,"ECCENTRICITY":0.00026169,"INCLINATION":81.2983,"RA_OF_ASC_NODE":303.7448,"ARG_OF_PERICENTER":69.1255,"MEAN_ANOMALY":291.0182,"EPHEMERIS_TYPE":0,"CLASSIFICATION_TYPE":"U","NORAD_CAT_ID":65974,"ELEMENT_SET_NO":999,"REV_AT_EPOCH":2007,"BSTAR":-0.026604975,"MEAN_MOTION_DOT":-0.00029653,"MEAN_MOTION_DDOT":0},{"OBJECT_NAME":"COSMOS 1275 DEB","OBJECT_ID":"1981-053MY","EPOCH":"2026-03-09T07:03:35.953632","MEAN_MOTION":13.6889291,"ECCENTRICITY":0.01337811,"INCLINATION":83.0712,"RA_OF_ASC_NODE":186.1462,"ARG_OF_PERICENTER":244.9619,"MEAN_ANOMALY":113.7596,"EPHEMERIS_TYPE":0,"CLASSIFICATION_TYPE":"U","NORAD_CAT_ID":39938,"ELEMENT_SET_NO":999,"REV_AT_EPOCH":58557,"BSTAR":0.0017000929,"MEAN_MOTION_DOT":1.573e-5,"MEAN_MOTION_DDOT":0}]
